{
  "type": "FeatureCollection",
  "features": [
    {
      "type": "Feature",
      "properties": {
        "norad_id": 22490,
        "name": "SCD 1",
        "group": "resource",
        "lat": -23.772985980450947,
        "lon": 118.04168491001103,
        "alt_km": 768.7048310087475,
        "timestamp": "2025-12-27T05:29:38.850514+00:00",
        "meta_object_name": "SCD 1",
        "meta_object_id": "1993-009B",
        "meta_epoch": "2025-12-26T15:05:04.547040",
        "meta_mean_motion": 14.46008245,
        "meta_eccentricity": 0.0042179,
        "meta_inclination": 24.9674,
        "meta_ra_of_asc_node": 192.9471,
        "meta_arg_of_pericenter": 111.7084,
        "meta_mean_anomaly": 283.5703,
        "meta_ephemeris_type": 0,
        "meta_classification_type": "U",
        "meta_norad_cat_id": 22490,
        "meta_element_set_no": 999,
        "meta_rev_at_epoch": 73611,
        "meta_bstar": 9.5318e-05,
        "meta_mean_motion_dot": 5.34e-06,
        "meta_mean_motion_ddot": 0,
        "tle_line1": "1 22490U 93009B   25360.62852485  .00000534  00000+0  95318-4 0  9995",
        "tle_line2": "2 22490  24.9674 192.9471 0042179 111.7084 283.5703 14.46008245736119"
      },
      "geometry": {
        "type": "Point",
        "coordinates": [
          118.04168491001103,
          -23.772985980450947
        ]
      }
    },
    {
      "type": "Feature",
      "properties": {
        "norad_id": 25397,
        "name": "TECHSAT 1B (GO-32)",
        "group": "resource",
        "lat": -79.48071026500553,
        "lon": 106.2497276023745,
        "alt_km": 818.5996704804575,
        "timestamp": "2025-12-27T05:29:38.850544+00:00",
        "meta_object_name": "TECHSAT 1B (GO-32)",
        "meta_object_id": "1998-043D",
        "meta_epoch": "2025-12-26T21:30:44.500032",
        "meta_mean_motion": 14.24381035,
        "meta_eccentricity": 0.00016007,
        "meta_inclination": 98.9935,
        "meta_ra_of_asc_node": 344.436,
        "meta_arg_of_pericenter": 33.7104,
        "meta_mean_anomaly": 326.4176,
        "meta_ephemeris_type": 0,
        "meta_classification_type": "U",
        "meta_norad_cat_id": 25397,
        "meta_element_set_no": 999,
        "meta_rev_at_epoch": 42680,
        "meta_bstar": 7.2285979e-05,
        "meta_mean_motion_dot": 1.21e-06,
        "meta_mean_motion_ddot": 0,
        "tle_line1": "1 25397U 98043D   25360.89634838  .00000121  00000+0  72286-4 0  9997",
        "tle_line2": "2 25397  98.9935 344.4360 0001600  33.7104 326.4176 14.24381035426800"
      },
      "geometry": {
        "type": "Point",
        "coordinates": [
          106.2497276023745,
          -79.48071026500553
        ]
      }
    },
    {
      "type": "Feature",
      "properties": {
        "norad_id": 25504,
        "name": "SCD 2",
        "group": "resource",
        "lat": -23.565116750258994,
        "lon": -16.857960651130043,
        "alt_km": 753.2561822903845,
        "timestamp": "2025-12-27T05:29:38.850559+00:00",
        "meta_object_name": "SCD 2",
        "meta_object_id": "1998-060A",
        "meta_epoch": "2025-12-26T13:56:13.357824",
        "meta_mean_motion": 14.45430804,
        "meta_eccentricity": 0.0017071,
        "meta_inclination": 24.9957,
        "meta_ra_of_asc_node": 56.5516,
        "meta_arg_of_pericenter": 99.0432,
        "meta_mean_anomaly": 49.9342,
        "meta_ephemeris_type": 0,
        "meta_classification_type": "U",
        "meta_norad_cat_id": 25504,
        "meta_element_set_no": 999,
        "meta_rev_at_epoch": 43532,
        "meta_bstar": 8.1486e-05,
        "meta_mean_motion_dot": 4.74e-06,
        "meta_mean_motion_ddot": 0,
        "tle_line1": "1 25504U 98060A   25360.58071016  .00000474  00000+0  81486-4 0  9998",
        "tle_line2": "2 25504  24.9957  56.5516 0017071  99.0432  49.9342 14.45430804435326"
      },
      "geometry": {
        "type": "Point",
        "coordinates": [
          -16.857960651130043,
          -23.565116750258994
        ]
      }
    },
    {
      "type": "Feature",
      "properties": {
        "norad_id": 25757,
        "name": "DLR-TUBSAT",
        "group": "resource",
        "lat": 39.39707587494535,
        "lon": 173.3777108378656,
        "alt_km": 704.9404307738232,
        "timestamp": "2025-12-27T05:29:38.850572+00:00",
        "meta_object_name": "DLR-TUBSAT",
        "meta_object_id": "1999-029B",
        "meta_epoch": "2025-12-17T13:22:10.787520",
        "meta_mean_motion": 14.52359578,
        "meta_eccentricity": 0.00141996,
        "meta_inclination": 98.6566,
        "meta_ra_of_asc_node": 336.2196,
        "meta_arg_of_pericenter": 177.8976,
        "meta_mean_anomaly": 182.2281,
        "meta_ephemeris_type": 0,
        "meta_classification_type": "U",
        "meta_norad_cat_id": 25757,
        "meta_element_set_no": 999,
        "meta_rev_at_epoch": 40688,
        "meta_bstar": 3.7650132e-05,
        "meta_mean_motion_dot": 1.05e-06,
        "meta_mean_motion_ddot": 0,
        "tle_line1": "1 25757U 99029B   25351.55706930  .00000105  00000+0  37650-4 0  9996",
        "tle_line2": "2 25757  98.6566 336.2196 0014199 177.8976 182.2281 14.52359578406886"
      },
      "geometry": {
        "type": "Point",
        "coordinates": [
          173.3777108378656,
          39.39707587494535
        ]
      }
    },
    {
      "type": "Feature",
      "properties": {
        "norad_id": 25994,
        "name": "TERRA",
        "group": "resource",
        "lat": -70.70087320659917,
        "lon": 75.9726656723579,
        "alt_km": 699.2523468725058,
        "timestamp": "2025-12-27T05:29:38.850584+00:00",
        "meta_object_name": "TERRA",
        "meta_object_id": "1999-068A",
        "meta_epoch": "2025-12-26T22:04:57.940320",
        "meta_mean_motion": 14.60917878,
        "meta_eccentricity": 0.00033721,
        "meta_inclination": 97.9729,
        "meta_ra_of_asc_node": 52.0828,
        "meta_arg_of_pericenter": 66.059,
        "meta_mean_anomaly": 38.4984,
        "meta_ephemeris_type": 0,
        "meta_classification_type": "U",
        "meta_norad_cat_id": 25994,
        "meta_element_set_no": 999,
        "meta_rev_at_epoch": 38445,
        "meta_bstar": 0.00012584055,
        "meta_mean_motion_dot": 5.72e-06,
        "meta_mean_motion_ddot": 0,
        "tle_line1": "1 25994U 99068A   25360.92011505  .00000572  00000+0  12584-3 0  9996",
        "tle_line2": "2 25994  97.9729  52.0828 0003372  66.0590  38.4984 14.60917878384451"
      },
      "geometry": {
        "type": "Point",
        "coordinates": [
          75.9726656723579,
          -70.70087320659917
        ]
      }
    },
    {
      "type": "Feature",
      "properties": {
        "norad_id": 27004,
        "name": "MAROC-TUBSAT",
        "group": "resource",
        "lat": -55.01365280098064,
        "lon": -24.35737273160238,
        "alt_km": 991.7918541467288,
        "timestamp": "2025-12-27T05:29:38.850597+00:00",
        "meta_object_name": "MAROC-TUBSAT",
        "meta_object_id": "2001-056D",
        "meta_epoch": "2025-12-26T23:39:38.000736",
        "meta_mean_motion": 13.70253593,
        "meta_eccentricity": 0.00193228,
        "meta_inclination": 99.7918,
        "meta_ra_of_asc_node": 169.6806,
        "meta_arg_of_pericenter": 222.3988,
        "meta_mean_anomaly": 255.3237,
        "meta_ephemeris_type": 0,
        "meta_classification_type": "U",
        "meta_norad_cat_id": 27004,
        "meta_element_set_no": 999,
        "meta_rev_at_epoch": 20260,
        "meta_bstar": 3.0812837e-05,
        "meta_mean_motion_dot": -1.9e-07,
        "meta_mean_motion_ddot": 0,
        "tle_line1": "1 27004U 01056D   25360.98585649 -.00000019  00000+0  30813-4 0  9994",
        "tle_line2": "2 27004  99.7918 169.6806 0019322 222.3988 255.3237 13.70253593202600"
      },
      "geometry": {
        "type": "Point",
        "coordinates": [
          -24.35737273160238,
          -55.01365280098064
        ]
      }
    },
    {
      "type": "Feature",
      "properties": {
        "norad_id": 27424,
        "name": "AQUA",
        "group": "resource",
        "lat": -29.75858254199315,
        "lon": 137.4953354107097,
        "alt_km": 693.9666700025518,
        "timestamp": "2025-12-27T05:29:38.850608+00:00",
        "meta_object_name": "AQUA",
        "meta_object_id": "2002-022A",
        "meta_epoch": "2025-12-24T19:18:33.414624",
        "meta_mean_motion": 14.61757572,
        "meta_eccentricity": 0.00018094,
        "meta_inclination": 98.4055,
        "meta_ra_of_asc_node": 319.881,
        "meta_arg_of_pericenter": 102.1365,
        "meta_mean_anomaly": 317.5475,
        "meta_ephemeris_type": 0,
        "meta_classification_type": "U",
        "meta_norad_cat_id": 27424,
        "meta_element_set_no": 999,
        "meta_rev_at_epoch": 25779,
        "meta_bstar": 0.00019560508,
        "meta_mean_motion_dot": 9.26e-06,
        "meta_mean_motion_ddot": 0,
        "tle_line1": "1 27424U 02022A   25358.80455341  .00000926  00000+0  19561-3 0  9999",
        "tle_line2": "2 27424  98.4055 319.8810 0001809 102.1365 317.5475 14.61757572257795"
      },
      "geometry": {
        "type": "Point",
        "coordinates": [
          137.4953354107097,
          -29.75858254199315
        ]
      }
    }
  ]
}